SL-16 R/B               
1 22285U 92093B   25300.38368926 -.00000197  00000+0 -76596-4 0  9992
2 22285  71.0202 284.1047 0003690 186.4553 173.6523 14.15418726694295
COSMOS 2228             
1 22286U 92094A   25300.48933631  .00002571  00000+0  22383-3 0  9996
2 22286  82.5207   4.7764 0018878  34.7770 325.4681 14.96423433756134
SL-16 R/B               
1 22566U 93016B   25300.55220745 -.00000097  00000+0 -25221-4 0  9993
2 22566  71.0059 134.8084 0009861 179.5962 180.5171 14.15280233683331
COSMOS 2242             
1 22626U 93024A   25300.54981767  .00003113  00000+0  27583-3 0  9998
2 22626  82.5218  33.9746 0017223  37.3073 322.9341 14.95821888760489
SL-16 R/B               
1 22803U 93059B   25300.43012069  .00000143  00000+0  94515-4 0  9991
2 22803  70.9892 292.1399 0015305  47.6893 312.5525 14.17202312660657
ARIANE 40 R/B           
1 22830U 93061H   25299.20063021  .00000366  00000+0  15032-3 0  9993
2 22830  98.5130   5.5827 0009979 327.4134  32.6433 14.32747706674849
COSMOS 2278             
1 23087U 94023A   25300.49361030 -.00000145  00000+0 -51308-4 0  9996
2 23087  71.0511  93.7607 0010795 240.1138 119.8912 14.14331252625976
SL-16 R/B               
1 23088U 94023B   25300.38906576  .00000292  00000+0  17570-3 0  9998
2 23088  71.0018 350.8267 0002497 183.3609 176.7497 14.14989511627237
SL-16 R/B               
1 23343U 94074B   25300.56081213  .00000710  00000+0  10226-3 0  9996
2 23343  97.7265 331.6864 0005313 301.9927 218.1959 14.79210003667569
SL-16 R/B               
1 23405U 94077B   25300.35196425 -.00000182  00000+0 -68364-4 0  9999
2 23405  70.9814 272.9995 0003420 320.6210  39.4664 14.15539232597368
ARIANE 40+ R/B          
1 23561U 95021B   25300.43953395  .00000482  00000+0  16826-3 0  9994
2 23561  98.4701   8.5762 0006955 172.1899 198.9821 14.39641042600073
SL-16 R/B               
1 23705U 95058B   25300.49368969  .00000198  00000+0  12540-3 0  9990
2 23705  71.0187  99.8938 0013943 315.5256  44.4746 14.15468203549007
