CCSDS_OMM_VERS = 2.0
CREATION_DATE  = 
ORIGINATOR     = 

OBJECT_NAME    = SL-16 R/B
OBJECT_ID      = 1992-093B
CENTER_NAME    = EARTH
REF_FRAME      = TEME
TIME_SYSTEM    = UTC
MEAN_ELEMENT_THEORY = SGP/SGP4

EPOCH          = 2025-10-27T09:12:30.752064
MEAN_MOTION    = 14.15418726
ECCENTRICITY   = .000369
INCLINATION    = 71.0202
RA_OF_ASC_NODE = 284.1047
ARG_OF_PERICENTER = 186.4553
MEAN_ANOMALY   = 173.6523

EPHEMERIS_TYPE = 0
CLASSIFICATION_TYPE = U
NORAD_CAT_ID   = 22285
ELEMENT_SET_NO = 999
REV_AT_EPOCH   = 69429
BSTAR          = -.76596E-4
MEAN_MOTION_DOT = -.197E-5
MEAN_MOTION_DDOT = 0

CCSDS_OMM_VERS = 2.0
CREATION_DATE  = 
ORIGINATOR     = 

OBJECT_NAME    = COSMOS 2228
OBJECT_ID      = 1992-094A
CENTER_NAME    = EARTH
REF_FRAME      = TEME
TIME_SYSTEM    = UTC
MEAN_ELEMENT_THEORY = SGP/SGP4

EPOCH          = 2025-10-27T11:44:38.657184
MEAN_MOTION    = 14.96423433
ECCENTRICITY   = .0018878
INCLINATION    = 82.5207
RA_OF_ASC_NODE = 4.7764
ARG_OF_PERICENTER = 34.7770
MEAN_ANOMALY   = 325.4681

EPHEMERIS_TYPE = 0
CLASSIFICATION_TYPE = U
NORAD_CAT_ID   = 22286
ELEMENT_SET_NO = 999
REV_AT_EPOCH   = 75613
BSTAR          = .22383E-3
MEAN_MOTION_DOT = .2571E-4
MEAN_MOTION_DDOT = 0

CCSDS_OMM_VERS = 2.0
CREATION_DATE  = 
ORIGINATOR     = 

OBJECT_NAME    = SL-16 R/B
OBJECT_ID      = 1993-016B
CENTER_NAME    = EARTH
REF_FRAME      = TEME
TIME_SYSTEM    = UTC
MEAN_ELEMENT_THEORY = SGP/SGP4

EPOCH          = 2025-10-27T13:15:10.723680
MEAN_MOTION    = 14.15280233
ECCENTRICITY   = .0009861
INCLINATION    = 71.0059
RA_OF_ASC_NODE = 134.8084
ARG_OF_PERICENTER = 179.5962
MEAN_ANOMALY   = 180.5171

EPHEMERIS_TYPE = 0
CLASSIFICATION_TYPE = U
NORAD_CAT_ID   = 22566
ELEMENT_SET_NO = 999
REV_AT_EPOCH   = 68333
BSTAR          = -.25221E-4
MEAN_MOTION_DOT = -.97E-6
MEAN_MOTION_DDOT = 0

CCSDS_OMM_VERS = 2.0
CREATION_DATE  = 
ORIGINATOR     = 

OBJECT_NAME    = COSMOS 2242
OBJECT_ID      = 1993-024A
CENTER_NAME    = EARTH
REF_FRAME      = TEME
TIME_SYSTEM    = UTC
MEAN_ELEMENT_THEORY = SGP/SGP4

EPOCH          = 2025-10-27T13:11:44.246688
MEAN_MOTION    = 14.95821888
ECCENTRICITY   = .0017223
INCLINATION    = 82.5218
RA_OF_ASC_NODE = 33.9746
ARG_OF_PERICENTER = 37.3073
MEAN_ANOMALY   = 322.9341

EPHEMERIS_TYPE = 0
CLASSIFICATION_TYPE = U
NORAD_CAT_ID   = 22626
ELEMENT_SET_NO = 999
REV_AT_EPOCH   = 76048
BSTAR          = .27583E-3
MEAN_MOTION_DOT = .3113E-4
MEAN_MOTION_DDOT = 0

CCSDS_OMM_VERS = 2.0
CREATION_DATE  = 
ORIGINATOR     = 

OBJECT_NAME    = SL-16 R/B
OBJECT_ID      = 1993-059B
CENTER_NAME    = EARTH
REF_FRAME      = TEME
TIME_SYSTEM    = UTC
MEAN_ELEMENT_THEORY = SGP/SGP4

EPOCH          = 2025-10-27T10:19:22.427616
MEAN_MOTION    = 14.17202312
ECCENTRICITY   = .0015305
INCLINATION    = 70.9892
RA_OF_ASC_NODE = 292.1399
ARG_OF_PERICENTER = 47.6893
MEAN_ANOMALY   = 312.5525

EPHEMERIS_TYPE = 0
CLASSIFICATION_TYPE = U
NORAD_CAT_ID   = 22803
ELEMENT_SET_NO = 999
REV_AT_EPOCH   = 66065
BSTAR          = .94515E-4
MEAN_MOTION_DOT = .143E-5
MEAN_MOTION_DDOT = 0

CCSDS_OMM_VERS = 2.0
CREATION_DATE  = 
ORIGINATOR     = 

OBJECT_NAME    = ARIANE 40 R/B
OBJECT_ID      = 1993-061H
CENTER_NAME    = EARTH
REF_FRAME      = TEME
TIME_SYSTEM    = UTC
MEAN_ELEMENT_THEORY = SGP/SGP4

EPOCH          = 2025-10-26T04:48:54.450144
MEAN_MOTION    = 14.32747706
ECCENTRICITY   = .0009979
INCLINATION    = 98.5130
RA_OF_ASC_NODE = 5.5827
ARG_OF_PERICENTER = 327.4134
MEAN_ANOMALY   = 32.6433

EPHEMERIS_TYPE = 0
CLASSIFICATION_TYPE = U
NORAD_CAT_ID   = 22830
ELEMENT_SET_NO = 999
REV_AT_EPOCH   = 67484
BSTAR          = .15032E-3
MEAN_MOTION_DOT = .366E-5
MEAN_MOTION_DDOT = 0

CCSDS_OMM_VERS = 2.0
CREATION_DATE  = 
ORIGINATOR     = 

OBJECT_NAME    = COSMOS 2278
OBJECT_ID      = 1994-023A
CENTER_NAME    = EARTH
REF_FRAME      = TEME
TIME_SYSTEM    = UTC
MEAN_ELEMENT_THEORY = SGP/SGP4

EPOCH          = 2025-10-27T11:50:47.929920
MEAN_MOTION    = 14.14331252
ECCENTRICITY   = .0010795
INCLINATION    = 71.0511
RA_OF_ASC_NODE = 93.7607
ARG_OF_PERICENTER = 240.1138
MEAN_ANOMALY   = 119.8912

EPHEMERIS_TYPE = 0
CLASSIFICATION_TYPE = U
NORAD_CAT_ID   = 23087
ELEMENT_SET_NO = 999
REV_AT_EPOCH   = 62597
BSTAR          = -.51308E-4
MEAN_MOTION_DOT = -.145E-5
MEAN_MOTION_DDOT = 0

CCSDS_OMM_VERS = 2.0
CREATION_DATE  = 
ORIGINATOR     = 

OBJECT_NAME    = SL-16 R/B
OBJECT_ID      = 1994-023B
CENTER_NAME    = EARTH
REF_FRAME      = TEME
TIME_SYSTEM    = UTC
MEAN_ELEMENT_THEORY = SGP/SGP4

EPOCH          = 2025-10-27T09:20:15.281664
MEAN_MOTION    = 14.14989511
ECCENTRICITY   = .0002497
INCLINATION    = 71.0018
RA_OF_ASC_NODE = 350.8267
ARG_OF_PERICENTER = 183.3609
MEAN_ANOMALY   = 176.7497

EPHEMERIS_TYPE = 0
CLASSIFICATION_TYPE = U
NORAD_CAT_ID   = 23088
ELEMENT_SET_NO = 999
REV_AT_EPOCH   = 62723
BSTAR          = .1757E-3
MEAN_MOTION_DOT = .292E-5
MEAN_MOTION_DDOT = 0

CCSDS_OMM_VERS = 2.0
CREATION_DATE  = 
ORIGINATOR     = 

OBJECT_NAME    = SL-16 R/B
OBJECT_ID      = 1994-074B
CENTER_NAME    = EARTH
REF_FRAME      = TEME
TIME_SYSTEM    = UTC
MEAN_ELEMENT_THEORY = SGP/SGP4

EPOCH          = 2025-10-27T13:27:34.168032
MEAN_MOTION    = 14.79210003
ECCENTRICITY   = .0005313
INCLINATION    = 97.7265
RA_OF_ASC_NODE = 331.6864
ARG_OF_PERICENTER = 301.9927
MEAN_ANOMALY   = 218.1959

EPHEMERIS_TYPE = 0
CLASSIFICATION_TYPE = U
NORAD_CAT_ID   = 23343
ELEMENT_SET_NO = 999
REV_AT_EPOCH   = 66756
BSTAR          = .10226E-3
MEAN_MOTION_DOT = .71E-5
MEAN_MOTION_DDOT = 0

CCSDS_OMM_VERS = 2.0
CREATION_DATE  = 
ORIGINATOR     = 

OBJECT_NAME    = SL-16 R/B
OBJECT_ID      = 1994-077B
CENTER_NAME    = EARTH
REF_FRAME      = TEME
TIME_SYSTEM    = UTC
MEAN_ELEMENT_THEORY = SGP/SGP4

EPOCH          = 2025-10-27T08:26:49.711200
MEAN_MOTION    = 14.15539232
ECCENTRICITY   = .000342
INCLINATION    = 70.9814
RA_OF_ASC_NODE = 272.9995
ARG_OF_PERICENTER = 320.6210
MEAN_ANOMALY   = 39.4664

EPHEMERIS_TYPE = 0
CLASSIFICATION_TYPE = U
NORAD_CAT_ID   = 23405
ELEMENT_SET_NO = 999
REV_AT_EPOCH   = 59736
BSTAR          = -.68364E-4
MEAN_MOTION_DOT = -.182E-5
MEAN_MOTION_DDOT = 0

CCSDS_OMM_VERS = 2.0
CREATION_DATE  = 
ORIGINATOR     = 

OBJECT_NAME    = ARIANE 40+ R/B
OBJECT_ID      = 1995-021B
CENTER_NAME    = EARTH
REF_FRAME      = TEME
TIME_SYSTEM    = UTC
MEAN_ELEMENT_THEORY = SGP/SGP4

EPOCH          = 2025-10-27T10:32:55.733280
MEAN_MOTION    = 14.39641042
ECCENTRICITY   = .0006955
INCLINATION    = 98.4701
RA_OF_ASC_NODE = 8.5762
ARG_OF_PERICENTER = 172.1899
MEAN_ANOMALY   = 198.9821

EPHEMERIS_TYPE = 0
CLASSIFICATION_TYPE = U
NORAD_CAT_ID   = 23561
ELEMENT_SET_NO = 999
REV_AT_EPOCH   = 60007
BSTAR          = .16826E-3
MEAN_MOTION_DOT = .482E-5
MEAN_MOTION_DDOT = 0

CCSDS_OMM_VERS = 2.0
CREATION_DATE  = 
ORIGINATOR     = 

OBJECT_NAME    = SL-16 R/B
OBJECT_ID      = 1995-058B
CENTER_NAME    = EARTH
REF_FRAME      = TEME
TIME_SYSTEM    = UTC
MEAN_ELEMENT_THEORY = SGP/SGP4

EPOCH          = 2025-10-27T11:50:54.789216
MEAN_MOTION    = 14.15468203
ECCENTRICITY   = .0013943
INCLINATION    = 71.0187
RA_OF_ASC_NODE = 99.8938
ARG_OF_PERICENTER = 315.5256
MEAN_ANOMALY   = 44.4746

EPHEMERIS_TYPE = 0
CLASSIFICATION_TYPE = U
NORAD_CAT_ID   = 23705
ELEMENT_SET_NO = 999
REV_AT_EPOCH   = 54900
BSTAR          = .1254E-3
MEAN_MOTION_DOT = .198E-5
MEAN_MOTION_DDOT = 0

